[Satellite]
VERSION=1.1
NAME=STARLINK-5109
NICKNAME=STARLINK-5109
TLE1=1 54002U 22125AQ  22296.91667824  .00264124  00000+0  18411-2 0  9992
TLE2=2 54002  53.2189   2.6987 0002761  29.2024 282.4340 15.73028532  1301
STATUS=0
